TELEOS-2                
1 56310U 23057C   26067.64596106  .00000863  00000+0  15043-4 0  9993
2 56310   9.9874 216.2411 0000803 295.2771  64.7359 14.96380118157711
STARLINK-32600          
1 62178U 24225R   26068.63305962  .00010214  00000+0  86211-3 0  9993
2 62178  70.0026 154.7094 0003012 264.8696  95.2119 14.98350761 70118
