[{"OBJECT_NAME":"TELEOS-2","OBJECT_ID":"2023-057C","EPOCH":"2026-03-08T15:30:11.035584","MEAN_MOTION":14.96380118,"ECCENTRICITY":8.033e-5,"INCLINATION":9.9874,"RA_OF_ASC_NODE":216.2411,"ARG_OF_PERICENTER":295.2771,"MEAN_ANOMALY":64.7359,"EPHEMERIS_TYPE":0,"CLASSIFICATION_TYPE":"U","NORAD_CAT_ID":56310,"ELEMENT_SET_NO":999,"REV_AT_EPOCH":15771,"BSTAR":1.5043378e-5,"MEAN_MOTION_DOT":8.63e-6,"MEAN_MOTION_DDOT":0},{"OBJECT_NAME":"STARLINK-32600","OBJECT_ID":"2024-225R","EPOCH":"2026-03-09T15:11:36.351168","MEAN_MOTION":14.98350761,"ECCENTRICITY":0.0003012,"INCLINATION":70.0026,"RA_OF_ASC_NODE":154.7094,"ARG_OF_PERICENTER":264.8696,"MEAN_ANOMALY":95.2119,"EPHEMERIS_TYPE":0,"CLASSIFICATION_TYPE":"U","NORAD_CAT_ID":62178,"ELEMENT_SET_NO":999,"REV_AT_EPOCH":7011,"BSTAR":0.00086211,"MEAN_MOTION_DOT":0.00010214,"MEAN_MOTION_DDOT":0}]
